[{"OBJECT_NAME":"STARLINK-32271","OBJECT_ID":"2024-138P","EPOCH":"2026-03-09T22:49:43.147776","MEAN_MOTION":15.30185549,"ECCENTRICITY":0.00013216,"INCLINATION":53.1612,"RA_OF_ASC_NODE":308.678,"ARG_OF_PERICENTER":95.9089,"MEAN_ANOMALY":264.2063,"EPHEMERIS_TYPE":0,"CLASSIFICATION_TYPE":"U","NORAD_CAT_ID":60368,"ELEMENT_SET_NO":999,"REV_AT_EPOCH":9066,"BSTAR":8.7564367e-5,"MEAN_MOTION_DOT":2.234e-5,"MEAN_MOTION_DDOT":0},{"OBJECT_NAME":"OPTUS B3 PKM","OBJECT_ID":"1994-055C","EPOCH":"2026-03-09T13:24:11.832192","MEAN_MOTION":2.13700466,"ECCENTRICITY":0.7333463,"INCLINATION":24.0588,"RA_OF_ASC_NODE":49.4647,"ARG_OF_PERICENTER":61.1939,"MEAN_ANOMALY":352.4818,"EPHEMERIS_TYPE":0,"CLASSIFICATION_TYPE":"U","NORAD_CAT_ID":23229,"ELEMENT_SET_NO":999,"REV_AT_EPOCH":24214,"BSTAR":0.00068851,"MEAN_MOTION_DOT":6.6e-7,"MEAN_MOTION_DDOT":0}]
